NORAD_CAT_ID,OBJECT_NAME,OBJECT_TYPE,EPOCH,MEAN_MOTION,ECCENTRICITY,INCLINATION,RA_OF_ASC_NODE,ARG_OF_PERICENTER,MEAN_ANOMALY,BSTAR,MEAN_MOTION_DOT,MEAN_MOTION_DDOT,TLE_LINE0,TLE_LINE1,TLE_LINE2,SEMIMAJOR_AXIS,PERIOD,APOGEE,PERIGEE,DECAYED
56458.0,STARLINK-6050,PAYLOAD,2023-11-22 18:44:12,14.98348205,0.0003012,70.0004,97.1971,268.0065,92.0749,4.9435e-05,4.97e-06,0.0,0 STARLINK-6050,1 56458U 23064L   23326.78070560  .00000497  00000-0  49435-4 0  9991,2 56458  70.0004  97.1971 0003012 268.0065  92.0749 14.98348205 30095,6950.137,96.106,574.095,569.908,0.0
56458.0,STARLINK-6050,PAYLOAD,2023-11-23 10:45:35,14.9832861,0.0003084,70.0003,95.5108,273.1332,86.9474,-0.00020656,-2.557e-05,0.0,0 STARLINK-6050,1 56458U 23064L   23327.44832275 -.00002557  00000-0 -20656-3 0  9998,2 56458  70.0003  95.5108 0003084 273.1332  86.9474 14.98328610 30197,6950.197,96.107,574.206,569.919,0.0
56458.0,STARLINK-6050,PAYLOAD,2023-11-23 13:57:51,14.98327409,0.0002981,70.0002,95.1745,268.6875,91.3942,-0.00019956,-2.473e-05,0.0,0 STARLINK-6050,1 56458U 23064L   23327.58184322 -.00002473  00000-0 -19956-3 0  9994,2 56458  70.0002  95.1745 0002981 268.6875  91.3942 14.98327409 29851,6950.201,96.107,574.138,569.994,0.0
56458.0,STARLINK-6050,PAYLOAD,2023-11-23 18:46:15,14.98330611,0.0003204,70.0,94.6696,270.6673,89.4119,-0.00019448,-2.413e-05,0.0,0 STARLINK-6050,1 56458U 23064L   23327.78212046 -.00002413  00000-0 -19448-3 0  9991,2 56458  70.0000  94.6696 0003204 270.6673  89.4119 14.98330611 29882,6950.191,96.107,574.283,569.829,0.0
56458.0,STARLINK-6050,PAYLOAD,2023-11-24 10:47:35,14.98331082,0.0003012,70.0005,92.9879,269.9813,90.1001,-7.7756e-05,-1.021e-05,0.0,0 STARLINK-6050,1 56458U 23064L   23328.44971785 -.00001021  00000-0 -77756-4 0  9998,2 56458  70.0005  92.9879 0003012 269.9813  90.1001 14.98331082 30340,6950.19,96.107,574.148,569.961,0.0
56458.0,STARLINK-6050,PAYLOAD,2023-11-24 13:59:51,14.98334514,0.0002748,70.0006,92.6507,265.2883,94.7963,-7.4336e-05,-9.8e-06,0.0,0 STARLINK-6050,1 56458U 23064L   23328.58323538 -.00000980  00000-0 -74336-4 0  9994,2 56458  70.0006  92.6507 0002748 265.2883  94.7963 14.98334514 30000,6950.179,96.107,573.954,570.134,0.0
56458.0,STARLINK-6050,PAYLOAD,2023-11-24 18:48:15,14.98337773,0.0002952,70.0005,92.1454,265.9063,94.1758,2.2052e-06,-6.7e-07,0.0,0 STARLINK-6050,1 56458U 23064L   23328.78351035 -.00000067  00000-0  22052-5 0  9993,2 56458  70.0005  92.1454 0002952 265.9063  94.1758 14.98337773 30397,6950.169,96.107,574.086,569.982,0.0
56458.0,STARLINK-6050,PAYLOAD,2023-11-25 14:01:52,14.98324566,0.0002619,70.0013,90.1264,258.434,101.6525,0.00012922,1.449e-05,0.0,0 STARLINK-6050,1 56458U 23064L   23329.58463586  .00001449  00000-0  12922-3 0  9994,2 56458  70.0013  90.1264 0002619 258.4340 101.6525 14.98324566 30154,6950.21,96.107,573.895,570.254,0.0
56458.0,STARLINK-6050,PAYLOAD,2023-11-25 18:50:16,14.98330958,0.0002534,70.0016,89.6215,254.4692,105.6187,0.00018498,2.115e-05,0.0,0 STARLINK-6050,1 56458U 23064L   23329.78491009  .00002115  00000-0  18498-3 0  9992,2 56458  70.0016  89.6215 0002534 254.4692 105.6187 14.98330958 30181,6950.19,96.107,573.816,570.294,0.0
56458.0,STARLINK-6050,PAYLOAD,2023-11-26 10:51:36,14.98343154,0.0002529,70.0016,87.9386,257.6325,102.4551,0.00012298,1.375e-05,0.0,0 STARLINK-6050,1 56458U 23064L   23330.45250055  .00001375  00000-0  12298-3 0  9991,2 56458  70.0016  87.9386 0002529 257.6325 102.4551 14.98343154 30646,6950.152,96.106,573.775,570.26,0.0
56458.0,STARLINK-6050,PAYLOAD,2023-11-26 14:03:51,14.98359674,0.0002654,70.0014,87.6024,260.6237,99.4622,-0.00011804,-1.502e-05,0.0,0 STARLINK-6050,1 56458U 23064L   23330.58601536 -.00001502  00000-0 -11804-3 0  9995,2 56458  70.0014  87.6024 0002654 260.6237  99.4622 14.98359674 30306,6950.101,96.105,573.811,570.122,0.0
56458.0,STARLINK-6050,PAYLOAD,2023-11-26 17:16:10,14.98313059,0.0002772,70.0016,87.2659,271.1161,88.9681,-0.00021343,-2.637e-05,0.0,0 STARLINK-6050,1 56458U 23064L   23330.71956383 -.00002637  00000-0 -21343-3 0  9992,2 56458  70.0016  87.2659 0002772 271.1161  88.9681 14.98313059 30688,6950.245,96.108,574.037,570.184,0.0
56458.0,STARLINK-6050,PAYLOAD,2023-11-27 12:29:47,14.9831641,0.0002732,70.0013,85.2467,258.2584,101.8268,-0.00024747,-3.043e-05,0.0,0 STARLINK-6050,1 56458U 23064L   23331.52068301 -.00003043  00000-0 -24747-3 0  9999,2 56458  70.0013  85.2467 0002732 258.2584 101.8268 14.98316410 30805,6950.235,96.108,573.999,570.201,0.0
56458.0,STARLINK-6050,PAYLOAD,2023-11-27 14:05:55,14.98311219,0.0002545,70.0022,85.0786,237.4158,122.6756,-0.00029208,-3.574e-05,0.0,0 STARLINK-6050,1 56458U 23064L   23331.58744831 -.00003574  00000-0 -29208-3 0  9990,2 56458  70.0022  85.0786 0002545 237.4158 122.6756 14.98311219 30451,6950.251,96.108,573.885,570.347,0.0
56458.0,STARLINK-6050,PAYLOAD,2023-11-27 17:18:11,14.98315666,0.0002718,70.0014,84.7411,253.331,106.755,-0.00025851,-3.175e-05,0.0,0 STARLINK-6050,1 56458U 23064L   23331.72096480 -.00003175  00000-0 -25851-3 0  9993,2 56458  70.0014  84.7411 0002718 253.3310 106.7550 14.98315666 30479,6950.237,96.108,573.991,570.213,0.0
56458.0,STARLINK-6050,PAYLOAD,2023-11-28 12:31:46,14.98334669,0.0002715,70.0006,82.7189,266.1728,93.9121,-0.00012817,-1.622e-05,0.0,0 STARLINK-6050,1 56458U 23064L   23332.52207115 -.00001622  00000-0 -12817-3 0  9994,2 56458  70.0006  82.7189 0002715 266.1728  93.9121 14.98334669 30950,6950.178,96.107,573.93,570.156,0.0
56458.0,STARLINK-6050,PAYLOAD,2023-11-28 14:07:54,14.98335516,0.0002596,70.001,82.551,262.6581,97.4283,-0.0001044,-1.339e-05,0.0,0 STARLINK-6050,1 56458U 23064L   23332.58882973 -.00001339  00000-0 -10440-3 0  9996,2 56458  70.0010  82.5510 0002596 262.6581  97.4283 14.98335516 30608,6950.176,96.107,573.845,570.237,0.0
56458.0,STARLINK-6050,PAYLOAD,2023-11-28 17:20:10,14.98338965,0.0002463,70.0016,82.2152,258.1125,101.9758,-4.6554e-05,-6.48e-06,0.0,0 STARLINK-6050,1 56458U 23064L   23332.72234530 -.00000648  00000-0 -46554-4 0  9990,2 56458  70.0016  82.2152 0002463 258.1125 101.9758 14.98338965 30621,6950.165,96.106,573.742,570.318,0.0
56458.0,STARLINK-6050,PAYLOAD,2023-11-29 12:33:48,14.98312918,0.0002781,70.0021,80.1962,262.4353,97.649,0.00014429,1.628e-05,0.0,0 STARLINK-6050,1 56458U 23064L   23333.52347768  .00001628  00000-0  14429-3 0  9999,2 56458  70.0021  80.1962 0002781 262.4353  97.6490 14.98312918 31105,6950.246,96.108,574.044,570.178,0.0
56458.0,STARLINK-6050,PAYLOAD,2023-11-29 14:09:56,14.98319753,0.0002888,70.001,80.027,260.7648,99.3184,0.0002117,2.433e-05,0.0,0 STARLINK-6050,1 56458U 23064L   23333.59023224  .00002433  00000-0  21170-3 0  9990,2 56458  70.0010  80.0270 0002888 260.7648  99.3184 14.98319753 30753,6950.225,96.108,574.097,570.082,0.0
56458.0,STARLINK-6050,PAYLOAD,2023-11-29 17:22:12,14.98323732,0.0002812,70.0012,79.6905,269.447,90.6367,0.00023739,2.74e-05,0.0,0 STARLINK-6050,1 56458U 23064L   23333.72375061  .00002740  00000-0  23739-3 0  9998,2 56458  70.0012  79.6905 0002812 269.4470  90.6367 14.98323732 31132,6950.212,96.107,574.032,570.123,0.0
56458.0,STARLINK-6050,PAYLOAD,2023-11-30 17:24:13,14.9833428,0.0002749,70.0011,77.1659,273.2329,86.8516,2.7449e-06,-6e-07,0.0,0 STARLINK-6050,1 56458U 23064L   23334.72515203 -.00000060  00000-0  27449-5 0  9991,2 56458  70.0011  77.1659 0002749 273.2329  86.8516 14.98334280 31284,6950.18,96.107,573.955,570.134,0.0
56458.0,STARLINK-6050,PAYLOAD,2023-12-01 11:01:42,14.9832325,0.0002813,70.0014,75.316,267.5709,92.5128,4.6917e-05,4.67e-06,0.0,0 STARLINK-6050,1 56458U 23064L   23335.45951696  .00000467  00000-0  46917-4 0  9992,2 56458  70.0014  75.3160 0002813 267.5709  92.5128 14.98323250 31394,6950.214,96.107,574.034,570.124,0.0
56458.0,STARLINK-6050,PAYLOAD,2023-12-01 14:13:57,14.98349952,0.0002622,70.0015,74.9788,259.3595,100.7269,-0.00031952,-3.905e-05,0.0,0 STARLINK-6050,1 56458U 23064L   23335.59302905 -.00003905  00000-0 -31952-3 0  9994,2 56458  70.0015  74.9788 0002622 259.3595 100.7269 14.98349952 31414,6950.131,96.106,573.819,570.174,0.0
56458.0,STARLINK-6050,PAYLOAD,2023-12-02 14:15:57,14.98347828,0.0002372,70.0021,72.4545,248.1778,111.9129,0.00014346,1.62e-05,0.0,0 STARLINK-6050,1 56458U 23064L   23336.59441153  .00001620  00000-0  14346-3 0  9992,2 56458  70.0021  72.4545 0002372 248.1778 111.9129 14.98347828 31202,6950.138,96.106,573.651,570.354,0.0
56458.0,STARLINK-6050,PAYLOAD,2023-12-02 15:52:04,14.98361136,0.0002605,70.0016,72.2863,253.1278,106.9596,3.4001e-05,3.13e-06,0.0,0 STARLINK-6050,1 56458U 23064L   23336.66116478  .00000313  00000-0  34001-4 0  9998,2 56458  70.0016  72.2863 0002605 253.1278 106.9596 14.98361136 31577,6950.097,96.105,573.772,570.151,0.0
56458.0,STARLINK-6050,PAYLOAD,2023-12-03 11:05:46,14.98295809,0.0003216,69.9997,70.2625,275.6769,84.4023,-0.00040239,-4.887e-05,0.0,0 STARLINK-6050,1 56458U 23064L   23337.46234285 -.00004887  00000-0 -40239-3 0  9995,2 56458  69.9997  70.2625 0003216 275.6769  84.4023 14.98295809 31690,6950.299,96.109,574.399,569.928,0.0
56458.0,STARLINK-6050,PAYLOAD,2023-12-03 14:18:02,14.98292457,0.000252,70.0018,69.9285,255.0046,105.0835,-0.00039593,-4.809e-05,0.0,0 STARLINK-6050,1 56458U 23064L   23337.59586664 -.00004809  00000-0 -39593-3 0  9995,2 56458  70.0018  69.9285 0002520 255.0046 105.0835 14.98292457 31351,6950.309,96.109,573.925,570.423,0.0
56458.0,STARLINK-6050,PAYLOAD,2023-12-04 11:07:46,14.98323526,0.0002822,70.0014,67.7402,270.5769,89.5067,-0.00022608,-2.789e-05,0.0,0 STARLINK-6050,1 56458U 23064L   23338.46373182 -.00002789  00000-0 -22608-3 0  9995,2 56458  70.0014  67.7402 0002822 270.5769  89.5067 14.98323526 31842,6950.213,96.107,574.039,570.117,0.0
56458.0,STARLINK-6050,PAYLOAD,2023-12-04 12:43:54,14.98325348,0.0002479,70.0021,67.5731,258.547,101.5411,-0.00020444,-2.531e-05,0.0,0 STARLINK-6050,1 56458U 23064L   23338.53048860 -.00002531  00000-0 -20444-3 0  9996,2 56458  70.0021  67.5731 0002479 258.5470 101.5411 14.98325348 31499,6950.207,96.107,573.795,570.349,0.0
